{"fetched_at":"2026-07-08T07:04:01.103Z","source":"https://celestrak.org/NORAD/elements/gp.php?NAME=JILIN&FORMAT=JSON","constellation":"jilin-1-kuanfu","records":[{"OBJECT_NAME":"JILIN-1 KUANFU 01","OBJECT_ID":"2020-003A","EPOCH":"2026-07-07T18:02:10.197024","CLASSIFICATION_TYPE":"U","MEAN_MOTION":15.10840849,"ECCENTRICITY":0.0008654,"INCLINATION":97.5019,"RA_OF_ASC_NODE":262.3061,"ARG_OF_PERICENTER":224.5272,"MEAN_ANOMALY":135.5263,"EPHEMERIS_TYPE":0,"NORAD_CAT_ID":45016,"ELEMENT_SET_NO":999,"REV_AT_EPOCH":35843,"BSTAR":0.00016233,"MEAN_MOTION_DOT":0.00002637,"MEAN_MOTION_DDOT":0},{"OBJECT_NAME":"JILIN-1 KUANFU-01B","OBJECT_ID":"2021-061A","EPOCH":"2026-07-07T20:25:53.126112","CLASSIFICATION_TYPE":"U","MEAN_MOTION":15.09785093,"ECCENTRICITY":0.0006808,"INCLINATION":97.52,"RA_OF_ASC_NODE":264.662,"ARG_OF_PERICENTER":4.8797,"MEAN_ANOMALY":355.2497,"EPHEMERIS_TYPE":0,"NORAD_CAT_ID":49003,"ELEMENT_SET_NO":999,"REV_AT_EPOCH":27646,"BSTAR":0.0001121,"MEAN_MOTION_DOT":0.00001748,"MEAN_MOTION_DDOT":0},{"OBJECT_NAME":"JILIN-1 KUANFU 01C","OBJECT_ID":"2022-048A","EPOCH":"2026-07-07T18:37:15.991392","CLASSIFICATION_TYPE":"U","MEAN_MOTION":15.09573223,"ECCENTRICITY":0.0016891,"INCLINATION":97.5247,"RA_OF_ASC_NODE":265.5754,"ARG_OF_PERICENTER":247.3833,"MEAN_ANOMALY":112.561,"EPHEMERIS_TYPE":0,"NORAD_CAT_ID":52443,"ELEMENT_SET_NO":999,"REV_AT_EPOCH":23030,"BSTAR":0.00013382,"MEAN_MOTION_DOT":0.00002091,"MEAN_MOTION_DDOT":0},{"OBJECT_NAME":"JILIN-1 KUANFU 02A","OBJECT_ID":"2023-127A","EPOCH":"2026-07-07T19:13:35.914368","CLASSIFICATION_TYPE":"U","MEAN_MOTION":15.10775296,"ECCENTRICITY":0.0009968,"INCLINATION":97.5565,"RA_OF_ASC_NODE":282.3589,"ARG_OF_PERICENTER":265.6857,"MEAN_ANOMALY":94.3233,"EPHEMERIS_TYPE":0,"NORAD_CAT_ID":57696,"ELEMENT_SET_NO":999,"REV_AT_EPOCH":15874,"BSTAR":0.00020012,"MEAN_MOTION_DOT":0.0000326,"MEAN_MOTION_DDOT":0},{"OBJECT_NAME":"JILIN-01 KUANFU 02B 1","OBJECT_ID":"2024-169A","EPOCH":"2026-07-07T17:45:33.192864","CLASSIFICATION_TYPE":"U","MEAN_MOTION":15.09023538,"ECCENTRICITY":0.0002179,"INCLINATION":97.557,"RA_OF_ASC_NODE":277.9452,"ARG_OF_PERICENTER":10.179,"MEAN_ANOMALY":349.9483,"EPHEMERIS_TYPE":0,"NORAD_CAT_ID":61189,"ELEMENT_SET_NO":999,"REV_AT_EPOCH":9892,"BSTAR":0.00018588,"MEAN_MOTION_DOT":0.00002877,"MEAN_MOTION_DDOT":0},{"OBJECT_NAME":"JILIN-01 KUANFU 02B 2","OBJECT_ID":"2024-169B","EPOCH":"2026-07-07T18:51:25.477056","CLASSIFICATION_TYPE":"U","MEAN_MOTION":15.08988588,"ECCENTRICITY":0.0005049,"INCLINATION":97.5567,"RA_OF_ASC_NODE":277.3761,"ARG_OF_PERICENTER":312.1091,"MEAN_ANOMALY":47.9708,"EPHEMERIS_TYPE":0,"NORAD_CAT_ID":61190,"ELEMENT_SET_NO":999,"REV_AT_EPOCH":9893,"BSTAR":0.00018675,"MEAN_MOTION_DOT":0.00002889,"MEAN_MOTION_DDOT":0},{"OBJECT_NAME":"JILIN-01 KUANFU 02B 3","OBJECT_ID":"2024-169C","EPOCH":"2026-07-07T17:29:04.604928","CLASSIFICATION_TYPE":"U","MEAN_MOTION":15.09025339,"ECCENTRICITY":0.0012526,"INCLINATION":97.5562,"RA_OF_ASC_NODE":277.7526,"ARG_OF_PERICENTER":233.2256,"MEAN_ANOMALY":126.7823,"EPHEMERIS_TYPE":0,"NORAD_CAT_ID":61191,"ELEMENT_SET_NO":999,"REV_AT_EPOCH":9892,"BSTAR":0.00020063,"MEAN_MOTION_DOT":0.00003115,"MEAN_MOTION_DDOT":0},{"OBJECT_NAME":"JILIN-01 KUANFU 02B 4","OBJECT_ID":"2024-169D","EPOCH":"2026-07-07T18:19:28.167744","CLASSIFICATION_TYPE":"U","MEAN_MOTION":15.09008603,"ECCENTRICITY":0.0013324,"INCLINATION":97.5527,"RA_OF_ASC_NODE":277.3171,"ARG_OF_PERICENTER":188.0639,"MEAN_ANOMALY":172.0378,"EPHEMERIS_TYPE":0,"NORAD_CAT_ID":61192,"ELEMENT_SET_NO":999,"REV_AT_EPOCH":9893,"BSTAR":0.00014998,"MEAN_MOTION_DOT":0.00002312,"MEAN_MOTION_DDOT":0},{"OBJECT_NAME":"JILIN-01 KUANFU 02B 5","OBJECT_ID":"2024-169E","EPOCH":"2026-07-07T18:01:02.227008","CLASSIFICATION_TYPE":"U","MEAN_MOTION":15.09040875,"ECCENTRICITY":0.0012513,"INCLINATION":97.5572,"RA_OF_ASC_NODE":278.0964,"ARG_OF_PERICENTER":213.5382,"MEAN_ANOMALY":146.5056,"EPHEMERIS_TYPE":0,"NORAD_CAT_ID":61193,"ELEMENT_SET_NO":999,"REV_AT_EPOCH":9893,"BSTAR":0.00014615,"MEAN_MOTION_DOT":0.00002253,"MEAN_MOTION_DDOT":0},{"OBJECT_NAME":"JILIN-01 KUANFU 02B 6","OBJECT_ID":"2024-169F","EPOCH":"2026-07-07T18:34:47.170848","CLASSIFICATION_TYPE":"U","MEAN_MOTION":15.09004361,"ECCENTRICITY":0.0015069,"INCLINATION":97.5556,"RA_OF_ASC_NODE":278.0142,"ARG_OF_PERICENTER":248.4436,"MEAN_ANOMALY":111.5187,"EPHEMERIS_TYPE":0,"NORAD_CAT_ID":61194,"ELEMENT_SET_NO":999,"REV_AT_EPOCH":9894,"BSTAR":0.00015523,"MEAN_MOTION_DOT":0.00002396,"MEAN_MOTION_DDOT":0}]}
