JILIN-1 KUANFU 01       
1 45016U 20003A   26188.75150691  .00002637  00000+0  16233-3 0  9995
2 45016  97.5019 262.3061 0008654 224.5272 135.5263 15.10840849358434
JILIN-1 KUANFU-01B      
1 49003U 21061A   26188.85130933  .00001748  00000+0  11210-3 0  9990
2 49003  97.5200 264.6620 0006808   4.8797 355.2497 15.09785093276461
JILIN-1 KUANFU 01C      
1 52443U 22048A   26188.77587953  .00002091  00000+0  13382-3 0  9991
2 52443  97.5247 265.5754 0016891 247.3833 112.5610 15.09573223230304
JILIN-1 KUANFU 02A      
1 57696U 23127A   26188.80111012  .00003260  00000+0  20012-3 0  9995
2 57696  97.5565 282.3589 0009968 265.6857  94.3233 15.10775296158742
JILIN-01 KUANFU 02B 1   
1 61189U 24169A   26188.73996751  .00002877  00000+0  18588-3 0  9995
2 61189  97.5570 277.9452 0002179  10.1790 349.9483 15.09023538 98927
JILIN-01 KUANFU 02B 2   
1 61190U 24169B   26188.78571154  .00002889  00000+0  18675-3 0  9998
2 61190  97.5567 277.3761 0005049 312.1091  47.9708 15.08988588 98930
JILIN-01 KUANFU 02B 3   
1 61191U 24169C   26188.72852552  .00003115  00000+0  20063-3 0  9994
2 61191  97.5562 277.7526 0012526 233.2256 126.7823 15.09025339 98923
JILIN-01 KUANFU 02B 4   
1 61192U 24169D   26188.76352046  .00002312  00000+0  14998-3 0  9990
2 61192  97.5527 277.3171 0013324 188.0639 172.0378 15.09008603 98931
JILIN-01 KUANFU 02B 5   
1 61193U 24169E   26188.75072022  .00002253  00000+0  14615-3 0  9993
2 61193  97.5572 278.0964 0012513 213.5382 146.5056 15.09040875 98934
JILIN-01 KUANFU 02B 6   
1 61194U 24169F   26188.77415707  .00002396  00000+0  15523-3 0  9994
2 61194  97.5556 278.0142 0015069 248.4436 111.5187 15.09004361 98949
